start=new Date('2023-05-08T00:00:00.000Z').valueOf();
sats=[{"MEAN_ELEMENT_THEORY":"SGP4","MEAN_MOTION_DDOT":"0.0000000000000","FILE":"3903413","MEAN_ANOMALY":"232.3727","CENTER_NAME":"EARTH","TLE_LINE1":"1 45678U 20035X   23127.90275632  .00024249  00000-0  16417-2 0  9991","NORAD_CAT_ID":"45678","MEAN_MOTION":"15.06389546","GP_ID":"231426902","ELEMENT_SET_NO":"999","PERIAPSIS":"546.220","CLASSIFICATION_TYPE":"U","BSTAR":"0.00164170000000","DECAY_DATE":null,"RA_OF_ASC_NODE":"30.9318","MEAN_MOTION_DOT":"0.00024249","RCS_SIZE":"LARGE","REV_AT_EPOCH":"16258","EPOCH":"2023-05-07T21:39:58.146048","SITE":"AFETR","TIME_SYSTEM":"UTC","EPHEMERIS_TYPE":"0","SEMIMAJOR_AXIS":"6925.381","TLE_LINE2":"2 45678  53.0541  30.9318 0001481 127.7396 232.3727 15.06389546162588","ARG_OF_PERICENTER":"127.7396","ECCENTRICITY":"0.00014810","APOAPSIS":"548.271","COUNTRY_CODE":"US","OBJECT_NAME":"STARLINK-1393","INCLINATION":"53.0541","OBJECT_ID":"2020-035X","PERIOD":"95.593","LAUNCH_DATE":"2020-06-04","OBJECT_TYPE":"PAYLOAD","REF_FRAME":"TEME"},{"RA_OF_ASC_NODE":"30.9231","BSTAR":"0.00164150000000","DECAY_DATE":null,"CLASSIFICATION_TYPE":"U","PERIAPSIS":"546.514","ELEMENT_SET_NO":"999","GP_ID":"231426653","MEAN_MOTION":"15.06378780","NORAD_CAT_ID":"45679","TLE_LINE1":"1 45679U 20035Y   23127.90647097  .00024239  00000-0  16415-2 0  9997","CENTER_NAME":"EARTH","MEAN_ANOMALY":"300.5908","FILE":"3903413","MEAN_MOTION_DDOT":"0.0000000000000","MEAN_ELEMENT_THEORY":"SGP4","REF_FRAME":"TEME","OBJECT_TYPE":"PAYLOAD","LAUNCH_DATE":"2020-06-04","PERIOD":"95.593","INCLINATION":"53.0544","COUNTRY_CODE":"US","OBJECT_NAME":"STARLINK-1394","OBJECT_ID":"2020-035Y","ECCENTRICITY":"0.00011040","APOAPSIS":"548.043","ARG_OF_PERICENTER":"59.5190","TLE_LINE2":"2 45679  53.0544  30.9231 0001104  59.5190 300.5908 15.06378780162602","SEMIMAJOR_AXIS":"6925.414","EPHEMERIS_TYPE":"0","TIME_SYSTEM":"UTC","SITE":"AFETR","EPOCH":"2023-05-07T21:45:19.091808","REV_AT_EPOCH":"16260","MEAN_MOTION_DOT":"0.00024239","RCS_SIZE":"LARGE"},{"TLE_LINE1":"1 45680U 20035Z   23127.91382623  .00023078  00000-0  15642-2 0  9992","CENTER_NAME":"EARTH","MEAN_ANOMALY":"274.0564","FILE":"3903413","MEAN_MOTION_DDOT":"0.0000000000000","MEAN_ELEMENT_THEORY":"SGP4","RA_OF_ASC_NODE":"30.8847","BSTAR":"0.00156420000000","DECAY_DATE":null,"ELEMENT_SET_NO":"999","CLASSIFICATION_TYPE":"U","PERIAPSIS":"546.325","MEAN_MOTION":"15.06375272","GP_ID":"231425402","NORAD_CAT_ID":"45680","SEMIMAJOR_AXIS":"6925.424","EPHEMERIS_TYPE":"0","TIME_SYSTEM":"UTC","EPOCH":"2023-05-07T21:55:54.586272","SITE":"AFETR","REV_AT_EPOCH":"16259","RCS_SIZE":"LARGE","MEAN_MOTION_DOT":"0.00023078","REF_FRAME":"TEME","OBJECT_TYPE":"PAYLOAD","LAUNCH_DATE":"2020-06-04","OBJECT_ID":"2020-035Z","COUNTRY_CODE":"US","INCLINATION":"53.0536","OBJECT_NAME":"STARLINK-1395","PERIOD":"95.594","APOAPSIS":"548.253","ECCENTRICITY":"0.00013920","ARG_OF_PERICENTER":"86.0584","TLE_LINE2":"2 45680  53.0536  30.8847 0001392  86.0584 274.0564 15.06375272162592"},{"EPOCH":"2023-05-07T21:50:35.494656","SITE":"AFETR","TIME_SYSTEM":"UTC","EPHEMERIS_TYPE":"0","SEMIMAJOR_AXIS":"6925.380","MEAN_MOTION_DOT":"0.00026897","RCS_SIZE":"LARGE","REV_AT_EPOCH":"16260","LAUNCH_DATE":"2020-06-04","OBJECT_TYPE":"PAYLOAD","REF_FRAME":"TEME","TLE_LINE2":"2 45681  53.0540  30.9013 0001368 128.0782 232.0330 15.06389773162602","ARG_OF_PERICENTER":"128.0782","APOAPSIS":"548.192","ECCENTRICITY":"0.00013680","INCLINATION":"53.0540","COUNTRY_CODE":"US","OBJECT_NAME":"STARLINK-1396","OBJECT_ID":"2020-035AA","PERIOD":"95.593","TLE_LINE1":"1 45681U 20035AA  23127.91013304  .00026897  00000-0  18182-2 0  9994","CENTER_NAME":"EARTH","MEAN_ELEMENT_THEORY":"SGP4","MEAN_MOTION_DDOT":"0.0000000000000","FILE":"3903413","MEAN_ANOMALY":"232.0330","BSTAR":"0.00181820000000","DECAY_DATE":null,"RA_OF_ASC_NODE":"30.9013","NORAD_CAT_ID":"45681","MEAN_MOTION":"15.06389773","GP_ID":"231425652","ELEMENT_SET_NO":"999","PERIAPSIS":"546.298","CLASSIFICATION_TYPE":"U"},{"LAUNCH_DATE":"2020-06-04","OBJECT_TYPE":"PAYLOAD","REF_FRAME":"TEME","TLE_LINE2":"2 45682  53.0539  30.8672 0000962  67.0933 293.0158 15.06375106162598","ARG_OF_PERICENTER":"67.0933","APOAPSIS":"547.956","ECCENTRICITY":"0.00009620","PERIOD":"95.594","COUNTRY_CODE":"US","OBJECT_NAME":"STARLINK-1397","INCLINATION":"53.0539","OBJECT_ID":"2020-035AB","SITE":"AFETR","EPOCH":"2023-05-07T22:01:13.867104","TIME_SYSTEM":"UTC","EPHEMERIS_TYPE":"0","SEMIMAJOR_AXIS":"6925.425","MEAN_MOTION_DOT":"0.00024485","RCS_SIZE":"LARGE","REV_AT_EPOCH":"16259","DECAY_DATE":null,"BSTAR":"0.00165810000000","RA_OF_ASC_NODE":"30.8672","NORAD_CAT_ID":"45682","GP_ID":"231426404","MEAN_MOTION":"15.06375106","CLASSIFICATION_TYPE":"U","PERIAPSIS":"546.624","ELEMENT_SET_NO":"999","TLE_LINE1":"1 45682U 20035AB  23127.91752161  .00024485  00000-0  16581-2 0  9998","CENTER_NAME":"EARTH","MEAN_ELEMENT_THEORY":"SGP4","MEAN_MOTION_DDOT":"0.0000000000000","FILE":"3903413","MEAN_ANOMALY":"293.0158"},{"REF_FRAME":"TEME","OBJECT_TYPE":"PAYLOAD","LAUNCH_DATE":"2020-06-04","COUNTRY_CODE":"US","INCLINATION":"53.0557","OBJECT_NAME":"STARLINK-1399","OBJECT_ID":"2020-035AC","PERIOD":"95.594","APOAPSIS":"548.072","ECCENTRICITY":"0.00011100","ARG_OF_PERICENTER":"88.0944","TLE_LINE2":"2 45683  53.0557  30.9583 0001110  88.0944 272.0172 15.06370596162605","SEMIMAJOR_AXIS":"6925.439","EPHEMERIS_TYPE":"0","TIME_SYSTEM":"UTC","EPOCH":"2023-05-07T21:34:40.997568","SITE":"AFETR","REV_AT_EPOCH":"16260","RCS_SIZE":"LARGE","MEAN_MOTION_DOT":"0.00020538","RA_OF_ASC_NODE":"30.9583","DECAY_DATE":null,"BSTAR":"0.00139480000000","ELEMENT_SET_NO":"999","PERIAPSIS":"546.535","CLASSIFICATION_TYPE":"U","MEAN_MOTION":"15.06370596","GP_ID":"231427152","NORAD_CAT_ID":"45683","CENTER_NAME":"EARTH","TLE_LINE1":"1 45683U 20035AC  23127.89908562  .00020538  00000-0  13948-2 0  9993","MEAN_ANOMALY":"272.0172","FILE":"3903413","MEAN_MOTION_DDOT":"0.0000000000000","MEAN_ELEMENT_THEORY":"SGP4"},{"NORAD_CAT_ID":"45684","CLASSIFICATION_TYPE":"U","PERIAPSIS":"535.747","ELEMENT_SET_NO":"999","GP_ID":"231425902","MEAN_MOTION":"15.09339460","BSTAR":"0.00198610000000","DECAY_DATE":null,"RA_OF_ASC_NODE":"30.4212","MEAN_MOTION_DDOT":"0.0000000000000","MEAN_ELEMENT_THEORY":"SGP4","MEAN_ANOMALY":"246.8344","FILE":"3903413","CENTER_NAME":"EARTH","TLE_LINE1":"1 45684U 20035AD  23127.88784021  .00031906  00000-0  19861-2 0  9996","ARG_OF_PERICENTER":"113.3023","TLE_LINE2":"2 45684  53.0549  30.4212 0003575 113.3023 246.8344 15.09339460162617","PERIOD":"95.406","COUNTRY_CODE":"US","INCLINATION":"53.0549","OBJECT_ID":"2020-035AD","OBJECT_NAME":"STARLINK-1401","APOAPSIS":"540.692","ECCENTRICITY":"0.00035750","LAUNCH_DATE":"2020-06-04","REF_FRAME":"TEME","OBJECT_TYPE":"PAYLOAD","RCS_SIZE":"LARGE","MEAN_MOTION_DOT":"0.00031906","REV_AT_EPOCH":"16261","TIME_SYSTEM":"UTC","SITE":"AFETR","EPOCH":"2023-05-07T21:18:29.394144","SEMIMAJOR_AXIS":"6916.354","EPHEMERIS_TYPE":"0"},{"EPHEMERIS_TYPE":"0","SEMIMAJOR_AXIS":"6921.625","EPOCH":"2023-05-07T22:17:36.459744","SITE":"AFETR","TIME_SYSTEM":"UTC","REV_AT_EPOCH":"16261","MEAN_MOTION_DOT":"0.00035717","RCS_SIZE":"LARGE","OBJECT_TYPE":"PAYLOAD","REF_FRAME":"TEME","LAUNCH_DATE":"2020-06-04","ECCENTRICITY":"0.00013340","APOAPSIS":"544.413","COUNTRY_CODE":"US","INCLINATION":"53.0549","OBJECT_NAME":"STARLINK-1402","OBJECT_ID":"2020-035AE","PERIOD":"95.515","TLE_LINE2":"2 45685  53.0549  30.7021 0001334 134.2581 225.8518 15.07615778162618","ARG_OF_PERICENTER":"134.2581","CENTER_NAME":"EARTH","TLE_LINE1":"1 45685U 20035AE  23127.92889421  .00035717  00000-0  23269-2 0  9993","FILE":"3903413","MEAN_ANOMALY":"225.8518","MEAN_ELEMENT_THEORY":"SGP4","MEAN_MOTION_DDOT":"0.0000000000000","RA_OF_ASC_NODE":"30.7021","DECAY_DATE":null,"BSTAR":"0.00232690000000","MEAN_MOTION":"15.07615778","GP_ID":"231426152","ELEMENT_SET_NO":"999","PERIAPSIS":"542.567","CLASSIFICATION_TYPE":"U","NORAD_CAT_ID":"45685"},{"RCS_SIZE":"LARGE","MEAN_MOTION_DOT":"0.00027312","REV_AT_EPOCH":"16261","TIME_SYSTEM":"UTC","EPOCH":"2023-05-07T22:22:27.728832","SITE":"AFETR","SEMIMAJOR_AXIS":"6925.393","EPHEMERIS_TYPE":"0","ARG_OF_PERICENTER":"120.4678","TLE_LINE2":"2 45686  53.0536  30.8081 0001070 120.4678 239.6417 15.06385489162616","INCLINATION":"53.0536","COUNTRY_CODE":"US","OBJECT_ID":"2020-035AF","OBJECT_NAME":"STARLINK-1404","PERIOD":"95.593","APOAPSIS":"547.999","ECCENTRICITY":"0.00010700","LAUNCH_DATE":"2020-06-04","REF_FRAME":"TEME","OBJECT_TYPE":"PAYLOAD","MEAN_MOTION_DDOT":"0.0000000000000","MEAN_ELEMENT_THEORY":"SGP4","MEAN_ANOMALY":"239.6417","FILE":"3903413","CENTER_NAME":"EARTH","TLE_LINE1":"1 45686U 20035AF  23127.93226538  .00027312  00000-0  18461-2 0  9999","NORAD_CAT_ID":"45686","ELEMENT_SET_NO":"999","PERIAPSIS":"546.517","CLASSIFICATION_TYPE":"U","MEAN_MOTION":"15.06385489","GP_ID":"231426903","DECAY_DATE":null,"BSTAR":"0.00184610000000","RA_OF_ASC_NODE":"30.8081"},{"TIME_SYSTEM":"UTC","SITE":"AFETR","EPOCH":"2023-05-07T21:28:54.314112","SEMIMAJOR_AXIS":"6879.253","EPHEMERIS_TYPE":"0","RCS_SIZE":"LARGE","MEAN_MOTION_DOT":"0.00011225","REV_AT_EPOCH":"16277","LAUNCH_DATE":"2020-06-04","REF_FRAME":"TEME","OBJECT_TYPE":"PAYLOAD","ARG_OF_PERICENTER":"74.0824","TLE_LINE2":"2 45688  53.0513  18.8453 0008434  74.0824 286.1101 15.21566099162779","PERIOD":"94.639","INCLINATION":"53.0513","COUNTRY_CODE":"US","OBJECT_NAME":"STARLINK-1408","OBJECT_ID":"2020-035AH","ECCENTRICITY":"0.00084340","APOAPSIS":"506.920","TLE_LINE1":"1 45688U 20035AH  23127.89507308  .00011225  00000-0  50495-3 0  9993","CENTER_NAME":"EARTH","MEAN_MOTION_DDOT":"0.0000000000000","MEAN_ELEMENT_THEORY":"SGP4","MEAN_ANOMALY":"286.1101","FILE":"3903413","BSTAR":"0.00050495000000","DECAY_DATE":null,"RA_OF_ASC_NODE":"18.8453","NORAD_CAT_ID":"45688","CLASSIFICATION_TYPE":"U","PERIAPSIS":"495.316","ELEMENT_SET_NO":"999","GP_ID":"231426654","MEAN_MOTION":"15.21566099"}];
